OBJECT_NAME,OBJECT_ID,EPOCH,MEAN_MOTION,ECCENTRICITY,INCLINATION,RA_OF_ASC_NODE,ARG_OF_PERICENTER,MEAN_ANOMALY,EPHEMERIS_TYPE,CLASSIFICATION_TYPE,NORAD_CAT_ID,ELEMENT_SET_NO,REV_AT_EPOCH,BSTAR,MEAN_MOTION_DOT,MEAN_MOTION_DDOT
GSAT-10,2012-051B,2026-07-02T19:04:38.193600,1.00270526,.00080865,0.0496,246.8058,206.3747,196.8210,0,U,38779,999,5025,0,-.154E-5,0
INTELSAT 23 (IS-23),2012-057A,2026-07-02T18:51:48.921696,1.00267174,.00003308,0.0141,7.2100,202.0482,301.4950,0,U,38867,999,5011,0,-.274E-5,0
BEIDOU-2 G6,2012-059A,2026-07-03T14:20:06.661248,1.00270277,.00094166,4.4609,73.3507,329.8911,177.4182,0,U,38953,999,5007,0,-.166E-5,0
LUCH-5B,2012-061A,2026-07-03T10:26:06.356256,1.00272481,.00030998,10.5168,49.7185,136.2596,235.7686,0,U,38977,999,4977,0,-.13E-5,0
YAMAL 300K,2012-061B,2026-07-04T01:04:05.879136,1.00265877,.0000088,0.0139,336.7352,115.6343,28.6671,0,U,38978,999,4980,0,.82E-6,0
STAR ONE C3,2012-062A,2026-07-02T10:12:09.616320,1.00270742,.0002636,0.0132,313.9528,160.9912,243.5663,0,U,38991,999,4991,0,-.238E-5,0
EUTELSAT 21B,2012-062B,2026-07-02T20:23:18.884832,1.00275197,.00029251,0.0660,347.4707,105.5004,155.3656,0,U,38992,999,4998,0,.141E-5,0
ECHOSTAR 16,2012-065A,2026-07-02T18:49:19.161984,1.00267684,.00019277,0.0245,45.5752,61.1954,34.8859,0,U,39008,999,4980,0,0,0
ZHONGXING-12,2012-067A,2026-07-03T02:35:38.732352,1.00272184,.00031976,0.0402,91.4029,359.7296,316.4306,0,U,39017,999,4966,0,-.196E-5,0
EUTELSAT 70B,2012-069A,2026-07-02T18:48:46.615968,1.00271105,.00034633,0.0611,7.1334,93.3970,172.9692,0,U,39020,999,4966,0,-.32E-6,0
YAMAL 402,2012-070A,2026-07-03T03:55:45.949728,1.00272936,.00039951,1.3035,83.9732,15.6457,295.4130,0,U,39022,999,4955,0,.96E-6,0
SKYNET 5D,2012-075A,2026-07-02T18:26:34.346112,1.00270943,.00038637,0.0658,357.6163,111.0139,141.5761,0,U,39034,999,4931,0,.11E-5,0
MEXSAT 3,2012-075B,2026-07-02T20:31:30.243360,1.00276316,.0001111,0.0178,293.9694,148.4953,31.5198,0,U,39035,999,721,0,-.16E-6,0
TDRS 11,2013-004A,2026-07-02T18:17:07.808352,1.00274996,.00049092,3.5436,31.5112,25.8174,323.3542,0,U,39070,999,4684,0,.89E-6,0
AMAZONAS 3,2013-006A,2026-07-02T18:49:19.161984,1.00271720,.0003219,0.0375,219.2082,284.8038,358.1441,0,U,39078,999,4507,0,-.272E-5,0
AZERSPACE 1,2013-006B,2026-07-02T19:19:51.259296,1.00271553,.00018337,0.0184,23.7641,106.4214,126.6016,0,U,39079,999,4896,0,.144E-5,0
SBIRS GEO-2 (USA 241),2013-011A,2026-07-02T10:19:23.922336,1.00271592,.0001971,4.5217,52.5132,41.3900,291.6083,0,U,39120,999,4868,0,-.278E-5,0
EUTELSAT 117 WEST A,2013-012A,2026-07-02T15:08:14.201088,1.00271540,.00029993,0.0167,332.2902,130.1285,288.4959,0,U,39122,999,4858,0,-.2E-7,0
ANIK G1,2013-014A,2026-07-02T15:10:58.938240,1.00269831,.00019056,0.0201,25.1103,82.7049,293.2988,0,U,39127,999,4840,0,0,0
ZHONGXING-11,2013-020A,2026-07-02T11:08:43.646784,1.00269667,.0002652,0.0126,354.8959,86.7733,103.9153,0,U,39157,999,4805,0,-.279E-5,0
EUTELSAT 7B,2013-022A,2026-07-02T19:08:52.312416,1.00270576,.00042982,0.0656,346.3763,60.4701,168.2066,0,U,39163,999,4810,0,.59E-6,0
WGS F5 (USA 243),2013-024A,2026-07-02T18:51:56.409984,1.00269718,.00003737,0.0207,27.1404,126.2370,357.9350,0,U,39168,999,4733,0,0,0
SES-6,2013-026A,2026-07-02T18:55:18.586848,1.00272684,.00027585,0.0214,334.2490,118.6256,71.2759,0,U,39172,999,4788,0,-.25E-5,0
IRNSS-1A,2013-034A,2026-07-02T17:40:07.481280,1.00279523,.00178399,35.7542,63.6474,181.6763,355.5578,0,U,39199,999,4752,0,.67E-6,0
MUOS-2,2013-036A,2026-07-02T18:13:23.166624,1.00270286,.00519121,5.0257,45.5491,176.6441,143.9155,0,U,39206,999,4734,0,-.4E-7,0
ALPHASAT,2013-038A,2026-07-02T20:27:41.620320,1.00270479,.00022343,2.9983,1.2251,114.6645,136.8041,0,U,39215,999,4417,0,.144E-5,0
INSAT-3D,2013-038B,2026-07-02T20:26:20.229792,1.00268722,.00010564,1.9642,82.3574,15.1644,259.4386,0,U,39216,999,4723,0,-.329E-5,0
WGS F6 (USA 244),2013-041A,2026-07-02T18:28:21.730944,1.00272986,.00015393,0.0189,25.9393,192.6833,204.0963,0,U,39222,999,4621,0,.99E-6,0
ES'HAIL 1,2013-044A,2026-07-02T20:28:07.841856,1.00270622,.0002559,0.0477,347.9510,110.4681,154.9960,0,U,39233,999,4678,0,.154E-5,0
GSAT-7,2013-044B,2026-07-02T20:54:36.452736,1.00271840,.00026754,0.1198,90.8093,182.2260,35.4747,0,U,39234,999,4541,0,-.66E-6,0
AMOS-4,2013-045A,2026-07-02T18:42:26.161344,1.00271879,.00022131,0.0159,64.9429,9.7384,191.7351,0,U,39237,999,4711,0,.18E-6,0
AEHF-3 (USA 246),2013-050A,2026-07-02T11:25:38.718912,1.00267919,.0088279,5.3307,67.0448,187.6876,73.0147,0,U,39256,999,4580,0,.37E-6,0
