GSAT-10                 
1 38779U 12051B   26183.79488650 -.00000154  00000+0  00000+0 0  9999
2 38779   0.0496 246.8058 0008086 206.3747 196.8210  1.00270526 50251
INTELSAT 23 (IS-23)     
1 38867U 12057A   26183.78598289 -.00000274  00000+0  00000+0 0  9995
2 38867   0.0141   7.2100 0000330 202.0482 301.4950  1.00267174 50111
BEIDOU-2 G6             
1 38953U 12059A   26184.59729932 -.00000166  00000+0  00000+0 0  9994
2 38953   4.4609  73.3507 0009416 329.8911 177.4182  1.00270277 50079
LUCH-5B                 
1 38977U 12061A   26184.43479579 -.00000130  00000+0  00000+0 0  9996
2 38977  10.5168  49.7185 0003099 136.2596 235.7686  1.00272481 49773
YAMAL 300K              
1 38978U 12061B   26185.04451249  .00000082  00000+0  00000+0 0  9994
2 38978   0.0139 336.7352 0000088 115.6343  28.6671  1.00265877 49805
STAR ONE C3             
1 38991U 12062A   26183.42511130 -.00000238  00000+0  00000+0 0  9990
2 38991   0.0132 313.9528 0002636 160.9912 243.5663  1.00270742 49919
EUTELSAT 21B            
1 38992U 12062B   26183.84952413  .00000141  00000+0  00000+0 0  9992
2 38992   0.0660 347.4707 0002925 105.5004 155.3656  1.00275197 49983
ECHOSTAR 16             
1 39008U 12065A   26183.78424956  .00000000  00000+0  00000+0 0  9997
2 39008   0.0245  45.5752 0001927  61.1954  34.8859  1.00267684 49808
ZHONGXING-12            
1 39017U 12067A   26184.10808718 -.00000196  00000+0  00000+0 0  9995
2 39017   0.0402  91.4029 0003197 359.7296 316.4306  1.00272184 49667
EUTELSAT 70B            
1 39020U 12069A   26183.78387287 -.00000032  00000+0  00000+0 0  9996
2 39020   0.0611   7.1334 0003463  93.3970 172.9692  1.00271105 49667
YAMAL 402               
1 39022U 12070A   26184.16372627  .00000096  00000+0  00000+0 0  9994
2 39022   1.3035  83.9732 0003995  15.6457 295.4130  1.00272936 49553
SKYNET 5D               
1 39034U 12075A   26183.76845308  .00000110  00000+0  00000+0 0  9995
2 39034   0.0658 357.6163 0003863 111.0139 141.5761  1.00270943 49315
MEXSAT 3                
1 39035U 12075B   26183.85521115 -.00000016  00000+0  00000+0 0  9999
2 39035   0.0178 293.9694 0001111 148.4953  31.5198  1.00276316  7211
TDRS 11                 
1 39070U 13004A   26183.76189593  .00000089  00000+0  00000+0 0  9990
2 39070   3.5436  31.5112 0004909  25.8174 323.3542  1.00274996 46846
AMAZONAS 3              
1 39078U 13006A   26183.78424956 -.00000272  00000+0  00000+0 0  9992
2 39078   0.0375 219.2082 0003219 284.8038 358.1441  1.00271720 45078
AZERSPACE 1             
1 39079U 13006B   26183.80545439  .00000144  00000+0  00000+0 0  9993
2 39079   0.0184  23.7641 0001833 106.4214 126.6016  1.00271553 48962
SBIRS GEO-2 (USA 241)   
1 39120U 13011A   26183.43013799 -.00000278  00000+0  00000+0 0  9993
2 39120   4.5217  52.5132 0001971  41.3900 291.6083  1.00271592 48681
EUTELSAT 117 WEST A     
1 39122U 13012A   26183.63071992 -.00000002  00000+0  00000+0 0  9992
2 39122   0.0167 332.2902 0002999 130.1285 288.4959  1.00271540 48583
ANIK G1                 
1 39127U 13014A   26183.63262660  .00000000  00000+0  00000+0 0  9990
2 39127   0.0201  25.1103 0001905  82.7049 293.2988  1.00269831 48401
ZHONGXING-11            
1 39157U 13020A   26183.46439406 -.00000279  00000+0  00000+0 0  9994
2 39157   0.0126 354.8959 0002652  86.7733 103.9153  1.00269667 48054
EUTELSAT 7B             
1 39163U 13022A   26183.79782769  .00000059  00000+0  00000+0 0  9997
2 39163   0.0656 346.3763 0004298  60.4701 168.2066  1.00270576 48104
WGS F5 (USA 243)        
1 39168U 13024A   26183.78606956  .00000000  00000+0  00000+0 0  9992
2 39168   0.0207  27.1404 0000373 126.2370 357.9350  1.00269718 47333
SES-6                   
1 39172U 13026A   26183.78840957 -.00000250  00000+0  00000+0 0  9998
2 39172   0.0214 334.2490 0002758 118.6256  71.2759  1.00272684 47885
IRNSS-1A                
1 39199U 13034A   26183.73619770  .00000067  00000+0  00000+0 0  9993
2 39199  35.7542  63.6474 0017839 181.6763 355.5578  1.00279523 47524
MUOS-2                  
1 39206U 13036A   26183.75929591 -.00000004  00000+0  00000+0 0  9993
2 39206   5.0257  45.5491 0051912 176.6441 143.9155  1.00270286 47348
ALPHASAT                
1 39215U 13038A   26183.85256505  .00000144  00000+0  00000+0 0  9998
2 39215   2.9983   1.2251 0002234 114.6645 136.8041  1.00270479 44171
INSAT-3D                
1 39216U 13038B   26183.85162303 -.00000329  00000+0  00000+0 0  9997
2 39216   1.9642  82.3574 0001056  15.1644 259.4386  1.00268722 47238
WGS F6 (USA 244)        
1 39222U 13041A   26183.76969596  .00000099  00000+0  00000+0 0  9990
2 39222   0.0189  25.9393 0001539 192.6833 204.0963  1.00272986 46211
ES'HAIL 1               
1 39233U 13044A   26183.85286854  .00000154  00000+0  00000+0 0  9996
2 39233   0.0477 347.9510 0002559 110.4681 154.9960  1.00270622 46780
GSAT-7                  
1 39234U 13044B   26183.87125524 -.00000066  00000+0  00000+0 0  9998
2 39234   0.1198  90.8093 0002675 182.2260  35.4747  1.00271840 45419
AMOS-4                  
1 39237U 13045A   26183.77946946  .00000018  00000+0  00000+0 0  9996
2 39237   0.0159  64.9429 0002213   9.7384 191.7351  1.00271879 47119
AEHF-3 (USA 246)        
1 39256U 13050A   26183.47614258  .00000037  00000+0  00000+0 0  9999
2 39256   5.3307  67.0448 0088279 187.6876  73.0147  1.00267919 45805
